{
    "links": {
        "self": "http://www.neowsapp.com/rest/v1/neo/3714127?api_key=iIulBulltgU6a56xZRHN4H3l9WmuAYTsLGpBGhQ2"
    },
    "id": "3714127",
    "neo_reference_id": "3714127",
    "name": "(2015 FO36)",
    "designation": "2015 FO36",
    "nasa_jpl_url": "http://ssd.jpl.nasa.gov/sbdb.cgi?sstr=3714127",
    "absolute_magnitude_h": 23.7,
    "estimated_diameter": {
        "kilometers": {
            "estimated_diameter_min": 0.0483676488,
            "estimated_diameter_max": 0.1081533507
        },
        "meters": {
            "estimated_diameter_min": 48.3676488219,
            "estimated_diameter_max": 108.1533506775
        },
        "miles": {
            "estimated_diameter_min": 0.0300542543,
            "estimated_diameter_max": 0.0672033557
        },
        "feet": {
            "estimated_diameter_min": 158.6865169607,
            "estimated_diameter_max": 354.8338390368
        }
    },
    "is_potentially_hazardous_asteroid": false,
    "close_approach_data": [
        {
            "close_approach_date": "2015-02-26",
            "close_approach_date_full": "2015-Feb-26 07:19",
            "epoch_date_close_approach": 1424935140000,
            "relative_velocity": {
                "kilometers_per_second": "7.7874913976",
                "kilometers_per_hour": "28034.9690312734",
                "miles_per_hour": "17419.8395072376"
            },
            "miss_distance": {
                "astronomical": "0.080414372",
                "lunar": "31.281190708",
                "kilometers": "12029818.76858764",
                "miles": "7474982.763243832"
            },
            "orbiting_body": "Earth"
        }
    ],
    "orbital_data": {
        "orbit_id": "4",
        "orbit_determination_date": "2017-04-06 08:34:51",
        "first_observation_date": "2015-03-23",
        "last_observation_date": "2015-03-29",
        "data_arc_in_days": 6,
        "observations_used": 18,
        "orbit_uncertainty": "9",
        "minimum_orbit_intersection": ".0749493",
        "jupiter_tisserand_invariant": "4.742",
        "epoch_osculation": "2457106.5",
        "eccentricity": ".303819768381441",
        "semi_major_axis": "1.380036168185446",
        "inclination": "8.108077423886186",
        "ascending_node_longitude": "180.1013322073888",
        "orbital_period": "592.1532671117681",
        "perihelion_distance": ".9607538992093326",
        "perihelion_argument": "289.0004536403277",
        "aphelion_distance": "1.79931843716156",
        "perihelion_time": "2457039.146767300611",
        "mean_anomaly": "40.94744573486145",
        "mean_motion": ".6079507114026452",
        "equinox": "J2000",
        "orbit_class": {
            "orbit_class_type": "APO",
            "orbit_class_description": "Near-Earth asteroid orbits which cross the Earth’s orbit similar to that of 1862 Apollo",
            "orbit_class_range": "a (semi-major axis) > 1.0 AU; q (perihelion) < 1.017 AU"
        }
    },
    "is_sentry_object": false
}